#dP2022 12  8 18  0  0.00000000      96 __u+U ITR00 EXT  IAC
## 2239 410400.00000000   900.00000000 59921 0.7500000000000
+  117   C06C07C08C09C10C11C12C13C14C16C19C20C21C22C23C24C25
+        C26C27C28C29C30C32C33C34C35C36C37C38C39C40C41C42C43
+        C44C45C46E01E02E03E04E05E07E08E09E10E12E13E14E15E18
+        E19E21E24E25E26E27E30E31E33E34E36G01G02G03G04G05G06
+        G07G08G09G10G11G12G13G14G15G16G17G18G19G20G21G22G23
+        G24G25G26G27G29G30G31G32J02J03J04R01R02R03R04R05R07
+        R08R09R11R12R13R14R15R17R18R19R20R21R22R24R25  0  0
++         0  0  0  0  0  0  0  0  0  0  0  0  0  0  0  0  0
++         0  0  0  0  0  0  0  0  0  0  0  0  0  0  0  0  0
++         0  0  0  0  0  0  0  0  0  0  0  0  0  0  0  0  0
++         0  0  0  0  0  0  0  0  0  0  0  0  0  0  0  0  0
++         0  0  0  0  0  0  0  0  0  0  0  0  0  0  0  0  0
++         0  0  0  0  0  0  0  0  0  0  0  0  0  0  0  0  0
++         0  0  0  0  0  0  0  0  0  0  0  0  0  0  0  0  0
%c M  cc GPS ccc cccc cccc cccc cccc ccccc ccccc ccccc ccccc
%c cc cc ccc ccc cccc cccc cccc cccc ccccc ccccc ccccc ccccc
%f  0.0000000  0.000000000  0.00000000000  0.000000000000000
%f  0.0000000  0.000000000  0.00000000000  0.000000000000000
%i    0    0    0    0      0      0      0      0         0
%i    0    0    0    0      0      0      0      0         0
/* IAC                                ULTRA-RAPID PREDICTION
/* S/V CLOCKS ARE ALIGNED TO GNSS TIME                      
/* G:C1WC2W R:C1PC2P E:C1XC5X C:C2IC6I J:C1CC2S             
/* PCV:IGS20_2233 OL/AL:FES2004  NONE     YN ORB:CoN CLK:CoN
*  2022 12 09  8 45  0.00000000
PC06 -16523.026743  31341.688517  22691.367336    221.175698
PC07  -4335.761189  39420.786489  14591.067393    100.590987
PC08  -4008.003814  20687.946834 -36504.192028    521.066287
PC09  -9794.315957  29931.642489  28154.077897   -787.169946
PC10   1274.148992  41525.285745   8904.204249     54.644545
PC11   1890.827006 -19342.189792  20089.989384   -246.125719
PC12  17236.954477 -21077.250065   6128.596153    337.722089
PC13   3821.585376  24152.519297 -34128.284546    153.717576
PC14  -6343.245735 -27147.645057    223.611686    249.201962
PC16 -21540.806008  31036.809395  18619.846464    104.553473
PC19  11982.714809  23534.521001   9053.518918   -905.404071
PC20    935.561055  26796.831128  -7765.743045    811.694516
PC21  11548.601028 -14055.644272  21167.252745   -928.552391
PC22  16621.306072   6573.871582  21428.714499   -749.716315
PC23 -27034.057383  -6627.450414   2077.461212   -872.328998
PC24   3157.233261 -16063.386202 -22616.485448   -698.662663
PC25 -18526.573895 -15528.618344 -13973.960105     36.840673
PC26  19846.598293  -7885.407889 -17959.316152    -47.337620
PC27 -21564.730428  17536.071051   2408.935197     63.552374
PC28 -21614.650924   3544.922404  17302.248736     45.209442
PC29   8872.922876  13518.741974 -22744.224648     51.345323
PC30  -9163.572915  22521.495074 -13679.258601      1.171918
PC32 -11481.190118  14071.018125 -21179.495856   -688.926527
PC33 -12069.195832 -23519.768897  -8927.599466   -896.917890
PC34   8150.800630 -22374.188685  14560.825303     57.160409
PC35  20944.270238  -2752.310508 -18255.191065    125.006588
PC36  17573.004704  16144.338890  14474.747725   -780.811079
PC37 -21092.431131   6482.491923  17108.643924   -888.523077
PC38 -12582.460814  19655.301461 -35108.000103     43.726202
PC39 -23441.846261  31891.345782  14274.561145     -1.033965
PC40  -9358.790865  36561.859049  19016.299602     -9.814825
PC41 -16671.919705  -7161.602239 -21156.214772   -361.215954
PC42    -58.100717 -26439.309105   8943.981042   -817.051066
PC43  -8198.256379 -14228.173074  22560.707471     29.189175
PC44  21026.482974 -18185.641892  -2627.714533    139.425175
PC45  27039.066484   6379.957721  -2465.282514    -32.474741
PC46  -1126.436533  16422.591902  22524.520560    -18.385564
PE01   5943.899167  23630.379350  16798.694331   -575.342827
PE02  -6224.868311 -23725.736634 -16588.444362      7.487239
PE03   2849.948398 -28300.171577  -8192.799827   -628.021059
PE04  10703.084484  16996.334899  21739.775171    -10.254102
PE05  15057.398626 -23217.698949  10507.208445   -116.813644
PE07 -18296.677808   4659.295034 -22799.916259     -5.742225
PE08 -10603.002373 -16968.276811 -21818.109014      0.249902
PE09  18125.923144  -4497.833413  22957.839151   -757.669275
PE10  25721.261030   3509.809888 -14213.619217   -496.530577
PE12  18709.452271   9633.679433 -20816.437135   -322.222635
PE13 -28963.531950   3080.291142   5281.884091    430.425194
PE14  16513.071040 -18298.906937  -8623.544176     79.520271
PE15 -18425.867453  -9715.976984  21041.312327    702.126067
PE18 -10154.302206  29123.561073  -4385.411448   -649.147417
PE19  -4896.194671  28618.398849   5739.519669  -3789.706675
PE21 -10548.771882  13114.127943  24348.860295   -499.306231
PE24  22573.217154   6561.194637 -17983.292258   -991.885293
PE25  10789.706681 -12870.733419 -24369.741428   -594.524954
PE26 -21782.594688  14292.669577 -14047.551120  -1886.663108
PE27 -22341.179502  -5661.220381  18586.258251   -458.889442
PE30 -20458.004962 -21374.364419   1210.546026  -1063.575010
PE31  20851.779565  20911.290114  -1931.159977   -510.203877
PE33  -2912.333974  16683.865603 -24265.611079   -455.568888
PE34   2669.186969 -16674.012475  24309.913387    -18.708270
PE36  22407.190298 -13941.368929  13417.815205   -472.725370
PG01   6867.472561  13724.748909 -22031.015907    240.220536
PG02 -10108.331161 -12911.143257  21490.491049   -633.944407
PG03  11135.650913  22859.634476  -7988.979707   -375.204873
PG04   2190.610496  21549.865194  15301.519431    -71.881650
PG05     76.560594 -19193.327557  18134.368454   -107.384258
PG06  25604.625069  -6113.151736   3912.666090    536.414702
PG07  21067.732053   7822.376060  14951.999386    276.912198
PG08  -5280.824098  25246.882949  -5478.579703    -97.768864
PG09  11158.542913  12092.381083  20760.563255   -256.295091
PG10 -19345.462736  -5583.933892 -17322.023817    -15.317982
PG11  18440.506549 -12023.269816  14843.632700    -53.642198
PG12  -8688.945014 -23641.885451  -8864.138123   -313.806868
PG13  13118.096077 -22973.920488     98.093097    438.844358
PG14  19829.305136   7833.600758 -15906.052519    -71.055744
PG15   1787.656558 -25747.040436  -6052.104905     -5.609810
PG16  -6046.679764  15914.276796  19973.508828   -526.362868
PG17  16274.103830  -2048.687213 -20468.299555    684.492482
PG18 -22529.298417  -6004.007313  12857.268046    -52.241569
PG19  18063.852926 -12624.880877 -14860.938908    248.130313
PG20  10810.940809 -11163.005892  21558.209584    464.757892
PG21  -2158.317224  15412.650033 -20804.768157    154.265929
PG22 -17213.881739  15895.036551 -11916.527252    381.051833
PG23 -20272.724163 -14820.023778  -8869.048397     -0.192082
PG24  -2986.505062 -15684.259425 -21558.401431     23.859584
PG25 -16782.534080 -20780.304327     76.215480    400.358541
PG26 -14861.641037   6543.445554  20959.870865    237.976475
PG27 -12708.109654  22433.118974   5185.744342    157.899831
PG29  -8196.747425 -14653.378950  20516.394910   -572.785258
PG30  26385.129741   -398.335070   4151.591308   -535.682279
PG31 -25427.351306   6693.907528   5055.308857   -202.713906
PG32 -16875.123361   5555.421848 -19527.101399   -323.470810
PJ02 -25826.221907  22060.649529  30040.948970     -0.277586
PJ03 -34743.114996  22737.758507  -2388.335496     -6.279127
PJ04 -20096.667736  27510.435380 -19735.991116    114.729296
PR01  -5639.968011  19994.249257 -14810.224284     19.236976
PR02   2663.215982  25093.882793   3498.262497    -23.407790
PR03   9466.660190  14852.707092  18462.244113     68.754836
PR04  10593.115548  -3286.083896  22994.497096    167.921885
PR05   6192.954660 -19724.834162  14968.639022    104.237570
PR07  -9589.521159 -14283.590391 -18822.895191     45.755529
PR08 -10653.873722   3459.662148 -22862.571530    -68.469608
PR09  -9962.786821 -14803.213349 -18179.811209     92.031708
PR11 -21715.914187  -3987.013133  12772.162581     16.048009
PR12  -8152.457486   8100.344112  22795.988534     23.501078
PR13   8455.387100  14442.059757  19231.055372    -29.753072
PR14  21872.682891  12721.334475   3292.683482     24.086191
PR15  21290.692839   3497.954416 -13589.730457     92.451625
PR17  13282.674012   3151.342377 -21522.107988    585.338579
PR18  21921.925159  -8358.500562 -10047.826142     55.925779
PR19  20201.193127 -14613.458518   5378.655240   -213.890301
PR20   4410.565050 -13484.600335  21223.089848    -83.622249
PR21 -14542.171216  -1979.817122  20878.099111   -356.076743
PR22 -22432.430547   7792.349896   9329.525786     19.468076
PR24  -3139.861060  13715.328946 -21256.854247    131.596022
PR25 -12973.336716  -4301.610890  21551.704778     48.424932
EOF
